MEAN_MOTION;ECCENTRICITY;INCLINATION;RA_OF_ASC_NODE;ARG_OF_PERICENTER;MEAN_ANOMALY;BSTAR;MEAN_MOTION_DOT;MEAN_MOTION_DDOT;TYPE
0.9982468;0.0006098;12.5105;321.6328;26.7826;154.5429;0;1.16E-6;0;Intelsat
0.99825104;0.0006081;12.5088;321.6213;27.1177;155.2731;0;1.15E-6;0;Intelsat
0.99825514;0.0006068;12.5072;321.6099;27.1667;151.8584;0;1.13E-6;0;Intelsat
0.99825968;0.0006058;12.5056;321.5983;27.2994;157.2627;0;1.1E-6;0;Intelsat
0.99826168;0.0006069;12.5048;321.5928;27.5724;332.0329;0;1.09E-6;0;Intelsat
0.99827283;0.0006063;12.5009;321.5658;27.9761;107.4848;0;1.02E-6;0;Intelsat
0.99827347;0.0006061;12.5007;321.5642;27.9579;159.8539;0;1.01E-6;0;Intelsat
0.99827815;0.0006067;12.499;321.5528;28.0472;160.8447;0;9.9E-7;0;Intelsat
0.99828285;0.0006074;12.4974;321.5415;28.2333;161.7459;0;9.6E-7;0;Intelsat
0.99828776;0.0006083;12.4957;321.5301;28.4584;162.6254;0;9.4E-7;0;Intelsat
0.99829239;0.0006095;12.494;321.5188;28.6493;163.5378;0;9.1E-7;0;Intelsat
0.99829285;0.0006095;12.4938;321.5172;28.6908;213.8127;0;9.0E-7;0;Intelsat
0.99829721;0.0006104;12.4923;321.5074;28.9149;164.3706;0;8.7E-7;0;Intelsat
0.99829921;0.0006108;12.4916;321.5025;29.0525;318.9994;0;8.6E-7;0;Intelsat
0.99830201;0.0006115;12.4906;321.496;29.2043;165.1759;0;8.3E-7;0;Intelsat
0.99830397;0.0006116;12.4898;321.4911;29.3502;319.8197;0;8.1E-7;0;Intelsat
0.99830676;0.0006123;12.4888;321.4846;29.5002;165.9281;0;7.8E-7;0;Intelsat
0.9983088;0.0006122;12.4881;321.4797;29.6689;320.5417;0;7.6E-7;0;Intelsat
0.99831154;0.000613;12.4871;321.4731;29.8286;166.692;0;7.2E-7;0;Intelsat
0.99831575;0.0006133;12.4855;321.4625;30.1512;141.723;0;6.6E-7;0;Intelsat
0.99832037;0.0006134;12.4838;321.4512;30.5189;142.457;0;5.9E-7;0;Intelsat
0.99832461;0.0006133;12.482;321.4398;30.8901;143.2038;0;5.2E-7;0;Intelsat
0.99832677;0.000612;12.4812;321.4341;31.1547;323.4758;0;4.8E-7;0;Intelsat
0.99832906;0.0006125;12.4803;321.4285;31.3324;143.8551;0;4.4E-7;0;Intelsat
0.99833326;0.0006118;12.4786;321.4172;31.7183;144.5902;0;3.6E-7;0;Intelsat
0.99833541;0.0006106;12.4777;321.4115;31.9174;324.9463;0;3.1E-7;0;Intelsat
0.99833772;0.0006106;12.4768;321.4059;32.1448;145.2821;0;2.7E-7;0;Intelsat
0.99833996;0.0006092;12.4759;321.4001;32.3403;329.6217;0;2.2E-7;0;Intelsat
0.99834195;0.0006091;12.4751;321.3945;32.5375;145.9959;0;1.8E-7;0;Intelsat
0.99834393;0.0006076;12.4742;321.3889;32.7491;326.3285;0;1.3E-7;0;Intelsat
0.99834582;0.0006071;12.4733;321.3832;32.9506;146.676;0;8.0E-8;0;Intelsat
0.99834953;0.0006047;12.4716;321.3719;33.3852;147.373;0;-2.0E-8;0;Intelsat
0.9983531;0.0006026;12.4698;321.3605;33.7399;148.1206;0;-1.3E-7;0;Intelsat
0.99835642;0.0006005;12.4681;321.349;34.0459;148.9498;0;-2.4E-7;0;Intelsat
0.99835794;0.0005994;12.4673;321.3433;34.2247;329.2524;0;-3.1E-7;0;Intelsat
0.99836124;0.0005969;12.4656;321.3319;34.5157;330.1111;0;-4.4E-7;0;Intelsat
0.99836269;0.0005953;12.4647;321.3262;34.6658;150.5613;0;-5.0E-7;0;Intelsat
0.99836538;0.0005927;12.4629;321.3148;34.9332;151.4018;0;-6.5E-7;0;Intelsat
0.99836657;0.0005918;12.4621;321.3091;35.0634;331.8447;0;-7.2E-7;0;Intelsat
0.99836776;0.0005903;12.4612;321.3034;35.1777;152.2774;0;-7.9E-7;0;Intelsat
0.99836989;0.0005882;12.4596;321.2921;35.3807;153.2147;0;-9.4E-7;0;Intelsat
0.99837199;0.0005865;12.4579;321.2808;35.5313;154.1742;0;-1.09E-6;0;Intelsat
0.99837372;0.0005853;12.4562;321.2695;35.6571;155.1817;0;-1.22E-6;0;Intelsat
0.99837507;0.0005844;12.4545;321.2582;35.7868;156.1851;0;-1.35E-6;0;Intelsat
0.99837567;0.0005847;12.4538;321.2532;35.7764;318.8314;0;-1.4E-6;0;Intelsat
0.99837713;0.0005841;12.4511;321.2357;35.9984;158.2118;0;-1.57E-6;0;Intelsat
0.99837713;0.0005841;12.4511;321.2357;35.9984;158.2118;0;-1.57E-6;0;Intelsat
0.99837788;0.0005843;12.4493;321.2244;36.1066;159.2509;0;-1.66E-6;0;Intelsat
0.99837836;0.0005846;12.4476;321.213;36.2451;160.2396;0;-1.75E-6;0;Intelsat
0.99837836;0.0005846;12.4476;321.213;36.2451;160.2396;0;-1.75E-6;0;Intelsat
0.99837858;0.0005848;12.446;321.2025;36.395;135.4639;0;-1.83E-6;0;Intelsat
0.99837867;0.0005852;12.4451;321.1968;36.5011;314.62;0;-1.87E-6;0;Intelsat
0.99837856;0.0005857;12.4442;321.191;36.5488;139.4098;0;-1.91E-6;0;Intelsat
0.99837836;0.0005854;12.4433;321.1854;36.7298;316.7913;0;-1.95E-6;0;Intelsat
0.99837817;0.0005859;12.4425;321.1797;36.7851;137.325;0;-1.99E-6;0;Intelsat
0.99837807;0.0005856;12.4416;321.174;36.9633;317.6915;0;-2.03E-6;0;Intelsat
0.99837733;0.0005856;12.4398;321.1627;37.2521;318.5285;0;-2.11E-6;0;Intelsat
0.998377;0.0005862;12.4389;321.157;37.33;139.0262;0;-2.14E-6;0;Intelsat
0.99837626;0.0005856;12.4371;321.1456;37.6851;139.8042;0;-2.21E-6;0;Intelsat
0.99837566;0.0005844;12.4362;321.14;37.9375;320.1004;0;-2.25E-6;0;Intelsat
0.99837515;0.0005854;12.4354;321.1345;37.9842;133.5596;0;-2.28E-6;0;Intelsat
0.9983738;0.0005844;12.4336;321.1229;38.3743;141.3394;0;-2.35E-6;0;Intelsat
0.99837223;0.000583;12.4318;321.1116;38.7667;140.5458;0;-2.41E-6;0;Intelsat
0.99837074;0.0005807;12.43;321.1001;39.227;145.2539;0;-2.46E-6;0;Intelsat
0.99836986;0.0005792;12.4291;321.0945;39.4251;323.0529;0;-2.49E-6;0;Intelsat
0.998369;0.0005786;12.4282;321.0889;39.6351;143.4207;0;-2.52E-6;0;Intelsat
0.998369;0.0005786;12.4282;321.0889;39.6351;143.4207;0;-2.52E-6;0;Intelsat
0.99836796;0.0005768;12.4273;321.0832;39.8561;323.7413;0;-2.54E-6;0;Intelsat
0.99836694;0.0005764;12.4264;321.0775;40.0227;144.1571;0;-2.56E-6;0;Intelsat
0.99836597;0.0005745;12.4255;321.0718;40.2396;324.4984;0;-2.59E-6;0;Intelsat
0.99836389;0.0005718;12.4238;321.0608;40.6428;312.5873;0;-2.63E-6;0;Intelsat
0.99835994;0.0005658;12.421;321.0432;41.3232;146.1902;0;-2.7E-6;0;Intelsat
0.99835868;0.0005642;12.4202;321.0375;41.5001;326.592;0;-2.73E-6;0;Intelsat
0.99835323;0.0005589;12.4168;321.0154;41.9983;302.5414;0;-2.83E-6;0;Intelsat
0.99835007;0.0005546;12.415;321.0031;42.3298;329.0944;0;-2.89E-6;0;Intelsat
0.99834861;0.0005532;12.4143;320.9982;42.4129;123.8238;0;-2.91E-6;0;Intelsat
0.99834669;0.0005512;12.4132;320.9917;42.5685;329.9799;0;-2.94E-6;0;Intelsat
0.99834539;0.0005498;12.4125;320.9868;42.6658;124.6738;0;-2.96E-6;0;Intelsat
0.99834355;0.0005485;12.4116;320.9808;42.7188;315.0786;0;-2.99E-6;0;Intelsat
0.99834185;0.0005468;12.4108;320.9754;42.8365;125.6053;0;-3.01E-6;0;Intelsat
0.99834158;0.0005467;12.4107;320.9746;42.8181;151.38;0;-3.01E-6;0;Intelsat
0.99833864;0.0005456;12.4092;320.964;42.8304;126.7242;0;-3.05E-6;0;Intelsat
0.99833517;0.0005457;12.4074;320.9527;42.7284;127.934;0;-3.07E-6;0;Intelsat
0.99833484;0.0005458;12.4072;320.9519;42.6879;153.7472;0;-3.07E-6;0;Intelsat
0.99833127;0.0005445;12.4056;320.9414;42.7726;129.0001;0;-3.07E-6;0;Intelsat
0.99832754;0.0005434;12.4037;320.93;42.8396;130.0347;0;-3.07E-6;0;Intelsat
0.99832559;0.0005432;12.4028;320.9243;42.8515;310.5863;0;-3.06E-6;0;Intelsat
0.99831968;0.0005432;12.4001;320.9073;42.8835;132.1994;0;-3.02E-6;0;Intelsat
0.99831749;0.0005432;12.399;320.9009;42.9375;336.9148;0;-3.0E-6;0;Intelsat
0.9983157;0.0005434;12.3981;320.8956;42.9526;143.5485;0;-2.98E-6;0;Intelsat
0.99831363;0.0005438;12.3973;320.8899;43.0137;323.8203;0;-2.96E-6;0;Intelsat
0.99831183;0.0005439;12.3964;320.8844;43.0336;134.2676;0;-2.94E-6;0;Intelsat
0.99830952;0.0005406;12.3955;320.8784;43.4355;326.336;0;-2.91E-6;0;Intelsat
0.99830574;0.0005406;12.3937;320.8673;43.6002;315.33;0;-2.87E-6;0;Intelsat
0.99830378;0.0005407;12.3928;320.8616;43.6302;135.8448;0;-2.84E-6;0;Intelsat
0.99830187;0.0005408;12.3919;320.8558;43.7699;316.2609;0;-2.81E-6;0;Intelsat
0.9982979;0.0005399;12.3901;320.8442;44.0353;322.2844;0;-2.76E-6;0;Intelsat
0.99829606;0.0005401;12.3892;320.8387;44.0873;136.2614;0;-2.73E-6;0;Intelsat
0.99829401;0.0005381;12.3882;320.8329;44.3936;321.0785;0;-2.7E-6;0;Intelsat
0.99829036;0.0005361;12.3865;320.8215;44.7462;318.5605;0;-2.64E-6;0;Intelsat
0.99828857;0.0005364;12.3856;320.8158;44.8227;139.0238;0;-2.61E-6;0;Intelsat
0.99828677;0.0005353;12.3847;320.8102;45.0192;317.192;0;-2.57E-6;0;Intelsat
0.99828296;0.0005337;12.3829;320.7989;45.3516;313.8249;0;-2.5E-6;0;Intelsat
0.99828116;0.0005333;12.3819;320.793;45.4917;140.5288;0;-2.47E-6;0;Intelsat
0.99827591;0.0005285;12.3792;320.7762;46.1264;311.4383;0;-2.35E-6;0;Intelsat
0.99827341;0.000527;12.3779;320.7676;46.3971;223.3431;0;-2.29E-6;0;Intelsat
0.9982726;0.000526;12.3774;320.7648;46.4735;308.3475;0;-2.27E-6;0;Intelsat
0.99826776;0.0005217;12.3748;320.7479;46.9618;117.6084;0;-2.15E-6;0;Intelsat
0.99826673;0.0005213;12.3742;320.7446;47.0389;225.469;0;-2.13E-6;0;Intelsat
0.99826466;0.0005176;12.373;320.7365;47.3217;118.3391;0;-2.07E-6;0;Intelsat
0.99826169;0.0005138;12.3712;320.725;47.6305;119.1081;0;-2.0E-6;0;Intelsat
0.99826033;0.000512;12.3703;320.7192;47.7583;299.5038;0;-1.97E-6;0;Intelsat
0.99825886;0.00051;12.3694;320.7134;47.9105;119.8924;0;-1.93E-6;0;Intelsat
0.99825606;0.0005066;12.3676;320.7017;48.1306;120.7598;0;-1.87E-6;0;Intelsat
0.99825348;0.0005022;12.3659;320.6901;48.3409;121.6141;0;-1.81E-6;0;Intelsat
0.99825215;0.0005009;12.365;320.6844;48.358;299.5623;0;-1.79E-6;0;Intelsat
0.99825093;0.000499;12.3641;320.6785;48.4643;122.5583;0;-1.76E-6;0;Intelsat
0.99824845;0.0004955;12.3624;320.667;48.5524;123.5653;0;-1.7E-6;0;Intelsat
0.99824597;0.0004929;12.3606;320.6555;48.5753;124.596;0;-1.63E-6;0;Intelsat
0.99824597;0.0004929;12.3606;320.6555;48.5753;124.596;0;-1.64E-6;0;Intelsat
0.99824501;0.0004917;12.3597;320.6497;48.52;305.1747;0;-1.6E-6;0;Intelsat
0.99824304;0.0004893;12.358;320.6383;48.5151;306.2725;0;-1.52E-6;0;Intelsat
0.99824213;0.0004887;12.3571;320.6326;48.5654;126.7444;0;-1.48E-6;0;Intelsat
0.99824128;0.0004887;12.3563;320.628;48.4421;274.1823;0;-1.44E-6;0;Intelsat
0.99823944;0.0004859;12.3544;320.6151;48.4944;308.7582;0;-1.33E-6;0;Intelsat
0.99823857;0.0004847;12.3535;320.6094;48.5447;128.9284;0;-1.28E-6;0;Intelsat
0.99823759;0.0004841;12.3523;320.6018;48.5137;9.5172;0;-1.2E-6;0;Intelsat
0.99823627;0.0004837;12.3506;320.5916;48.4811;327.5993;0;-1.1E-6;0;Intelsat
0.99823566;0.0004831;12.3498;320.5863;48.5069;131.0854;0;-1.05E-6;0;Intelsat
0.99823498;0.000483;12.3488;320.5804;48.5217;311.6163;0;-9.9E-7;0;Intelsat
